SL-8 R/B                
1 19257U 88053B   26074.29265032  .00000279  00000+0  98968-4 0  9997
2 19257  74.0453 102.1378 0021513 280.6950 164.4918 14.38919435977400
COSMOS 1975             
1 19573U 88093A   26074.15985239  .00007822  00000+0  28325-3 0  9995
2 19573  82.5177 112.1934 0012636 145.1258 215.0812 15.28153939 20245
SL-14 R/B               
1 19574U 88093B   26073.98368362  .00000685  00000+0  75948-4 0  9992
2 19574  82.5314  37.0739 0021376  24.7698  39.7715 14.85663943  1805
SL-16 R/B               
1 19650U 88102B   26074.27317574  .00000144  00000+0  96703-4 0  9992
2 19650  70.9994 139.7493 0014304 352.7515   7.3399 14.16155361927683
INTERCOSMOS 24          
1 20261U 89080A   26074.04491418  .00000750  00000+0  22332-3 0  9992
2 20261  82.6019 100.9161 1186671 280.3778  66.5937 12.59566664667478
SL-14 R/B               
1 20262U 89080C   26074.23723349  .00000564  00000+0  16389-3 0  9993
2 20262  82.5972 169.6264 1230714 172.0740 190.1965 12.50500639660846
DELTA 1 R/B             
1 20323U 89089B   26074.13890485  .00000400  00000+0  10727-3 0  9994
2 20323  97.0702 280.7108 0070672 105.0715 255.8317 14.50668026896523
ARIANE 40 R/B           
1 20443U 90005H   26074.16433906  .00000298  00000+0  10838-3 0  9999
2 20443  98.3071 134.6624 0010186 181.7517 178.3638 14.39874510893597
DELTA 2 R/B(1)          
1 20453U 90008B   26073.89130340  .00069746  00000+0  79742-3 0  9990
2 20453  35.6033 140.6976 0083556 306.7395  52.5691 15.56709705926942
COSMOS 2058             
1 20465U 90010A   26074.27580858  .00004730  00000+0  27850-3 0  9997
2 20465  82.4665  41.9228 0008555 325.7993  34.2685 15.11376498943084
SL-14 R/B               
1 20466U 90010B   26074.01516906  .00000510  00000+0  58896-4 0  9990
2 20466  82.4987 262.3847 0018351 283.4593  76.4577 14.83574152929277
SL-14 R/B               
1 20511U 90018B   26074.17315132  .00000566  00000+0  68017-4 0  9991
2 20511  82.5213 217.9642 0017586  75.4739 284.8425 14.82151536923390
HST                     
1 20580U 90037B   26074.09734323  .00009139  00000+0  30180-3 0  9990
2 20580  28.4724   3.1083 0001754 179.9846 180.0750 15.29577841774143
SL-16 R/B               
1 20625U 90046B   26074.28184801 -.00000026  00000+0  11366-4 0  9994
2 20625  70.9975 286.1694 0016171 292.1593  67.7814 14.15011261849182
COSMOS 2084             
1 20663U 90055A   26074.03505408  .00002750  00000+0  20277-3 0  9994
2 20663  62.7914 317.3473 0016237 191.4264 168.6470 15.05685158937120
SL-6 R/B(2)             
1 20666U 90055D   26074.15802317  .00002526  00000+0  19706-3 0  9995
2 20666  62.7820 235.2535 0025680 348.3465  11.7036 15.03624571939010
SL-8 R/B                
1 20775U 90078B   26074.21969090  .00019740  00000+0  58223-3 0  9993
2 20775  82.8998 246.3360 0361028 355.3933   4.3985 14.89261389810124
